{"fetched_at":"2026-07-14T06:34:20.123Z","source":"https://celestrak.org/NORAD/elements/gp.php?GROUP=kuiper&FORMAT=JSON","constellation":"kuiper","records":[{"OBJECT_NAME":"KUIPER-00279","OBJECT_ID":"2026-030AH","EPOCH":"2026-07-13T16:48:25.881120","CLASSIFICATION_TYPE":"U","MEAN_MOTION":14.79926821,"ECCENTRICITY":0.0001045,"INCLINATION":51.9044,"RA_OF_ASC_NODE":340.9202,"ARG_OF_PERICENTER":159.0682,"MEAN_ANOMALY":201.0323,"EPHEMERIS_TYPE":0,"NORAD_CAT_ID":67795,"ELEMENT_SET_NO":999,"REV_AT_EPOCH":2432,"BSTAR":0.000011862,"MEAN_MOTION_DOT":-0.00000131,"MEAN_MOTION_DDOT":0},{"OBJECT_NAME":"KUIPER-00131","OBJECT_ID":"2026-072A","EPOCH":"2026-07-13T19:57:20.977056","CLASSIFICATION_TYPE":"U","MEAN_MOTION":14.79932511,"ECCENTRICITY":0.0000675,"INCLINATION":51.9006,"RA_OF_ASC_NODE":77.8291,"ARG_OF_PERICENTER":103.5118,"MEAN_ANOMALY":256.592,"EPHEMERIS_TYPE":0,"NORAD_CAT_ID":68573,"ELEMENT_SET_NO":999,"REV_AT_EPOCH":1506,"BSTAR":0.00026645,"MEAN_MOTION_DOT":0.00001811,"MEAN_MOTION_DDOT":0},{"OBJECT_NAME":"KUIPER-00189","OBJECT_ID":"2026-072B","EPOCH":"2026-07-13T20:42:05.400000","CLASSIFICATION_TYPE":"U","MEAN_MOTION":14.79935401,"ECCENTRICITY":0.0000906,"INCLINATION":51.8996,"RA_OF_ASC_NODE":80.1786,"ARG_OF_PERICENTER":91.7674,"MEAN_ANOMALY":268.3392,"EPHEMERIS_TYPE":0,"NORAD_CAT_ID":68574,"ELEMENT_SET_NO":999,"REV_AT_EPOCH":1503,"BSTAR":-0.000022112,"MEAN_MOTION_DOT":-0.0000039,"MEAN_MOTION_DDOT":0},{"OBJECT_NAME":"KUIPER-00192","OBJECT_ID":"2026-072C","EPOCH":"2026-07-13T20:01:13.761984","CLASSIFICATION_TYPE":"U","MEAN_MOTION":14.79931357,"ECCENTRICITY":0.0000807,"INCLINATION":51.9013,"RA_OF_ASC_NODE":75.3139,"ARG_OF_PERICENTER":107.4764,"MEAN_ANOMALY":252.6287,"EPHEMERIS_TYPE":0,"NORAD_CAT_ID":68575,"ELEMENT_SET_NO":999,"REV_AT_EPOCH":1510,"BSTAR":0.00027462,"MEAN_MOTION_DOT":0.00001873,"MEAN_MOTION_DDOT":0},{"OBJECT_NAME":"KUIPER-00193","OBJECT_ID":"2026-072D","EPOCH":"2026-07-12T23:07:00.910272","CLASSIFICATION_TYPE":"U","MEAN_MOTION":14.76603137,"ECCENTRICITY":0.00007871,"INCLINATION":51.9051,"RA_OF_ASC_NODE":69.1401,"ARG_OF_PERICENTER":8.4291,"MEAN_ANOMALY":351.6683,"EPHEMERIS_TYPE":0,"NORAD_CAT_ID":68576,"ELEMENT_SET_NO":999,"REV_AT_EPOCH":1511,"BSTAR":0.00019762693,"MEAN_MOTION_DOT":0.00001178,"MEAN_MOTION_DDOT":0},{"OBJECT_NAME":"KUIPER-00194","OBJECT_ID":"2026-072E","EPOCH":"2026-07-13T20:53:42.247968","CLASSIFICATION_TYPE":"U","MEAN_MOTION":14.79917717,"ECCENTRICITY":0.0000824,"INCLINATION":51.903,"RA_OF_ASC_NODE":72.6651,"ARG_OF_PERICENTER":139.008,"MEAN_ANOMALY":221.0945,"EPHEMERIS_TYPE":0,"NORAD_CAT_ID":68577,"ELEMENT_SET_NO":999,"REV_AT_EPOCH":1514,"BSTAR":0.00026657,"MEAN_MOTION_DOT":0.00001811,"MEAN_MOTION_DDOT":0},{"OBJECT_NAME":"KUIPER-00229","OBJECT_ID":"2026-072F","EPOCH":"2026-07-13T20:45:57.498048","CLASSIFICATION_TYPE":"U","MEAN_MOTION":14.79938468,"ECCENTRICITY":0.0000906,"INCLINATION":51.901,"RA_OF_ASC_NODE":77.6763,"ARG_OF_PERICENTER":112.2477,"MEAN_ANOMALY":247.8582,"EPHEMERIS_TYPE":0,"NORAD_CAT_ID":68578,"ELEMENT_SET_NO":999,"REV_AT_EPOCH":1507,"BSTAR":0.00025914,"MEAN_MOTION_DOT":0.00001755,"MEAN_MOTION_DDOT":0},{"OBJECT_NAME":"KUIPER-00230","OBJECT_ID":"2026-072G","EPOCH":"2026-07-13T19:48:33.187968","CLASSIFICATION_TYPE":"U","MEAN_MOTION":15.38632824,"ECCENTRICITY":0.0002956,"INCLINATION":51.8762,"RA_OF_ASC_NODE":47.7414,"ARG_OF_PERICENTER":115.1761,"MEAN_ANOMALY":244.9533,"EPHEMERIS_TYPE":0,"NORAD_CAT_ID":68579,"ELEMENT_SET_NO":999,"REV_AT_EPOCH":1548,"BSTAR":0.00055345,"MEAN_MOTION_DOT":0.00021118,"MEAN_MOTION_DDOT":0},{"OBJECT_NAME":"KUIPER-00231","OBJECT_ID":"2026-072H","EPOCH":"2026-07-13T20:00:01.999008","CLASSIFICATION_TYPE":"U","MEAN_MOTION":14.96948473,"ECCENTRICITY":0.0002069,"INCLINATION":51.896,"RA_OF_ASC_NODE":50.7177,"ARG_OF_PERICENTER":0.2764,"MEAN_ANOMALY":265.373,"EPHEMERIS_TYPE":0,"NORAD_CAT_ID":68580,"ELEMENT_SET_NO":999,"REV_AT_EPOCH":540,"BSTAR":-0.0040964,"MEAN_MOTION_DOT":-0.0004752,"MEAN_MOTION_DDOT":0},{"OBJECT_NAME":"KUIPER-00234","OBJECT_ID":"2026-072J","EPOCH":"2026-07-13T20:00:14.044032","CLASSIFICATION_TYPE":"U","MEAN_MOTION":14.76581826,"ECCENTRICITY":0.0004294,"INCLINATION":51.8997,"RA_OF_ASC_NODE":72.7645,"ARG_OF_PERICENTER":351.7449,"MEAN_ANOMALY":8.3441,"EPHEMERIS_TYPE":0,"NORAD_CAT_ID":68581,"ELEMENT_SET_NO":999,"REV_AT_EPOCH":1513,"BSTAR":0.000497,"MEAN_MOTION_DOT":0.00003287,"MEAN_MOTION_DDOT":0},{"OBJECT_NAME":"KUIPER-00236","OBJECT_ID":"2026-072K","EPOCH":"2026-07-13T20:19:02.332992","CLASSIFICATION_TYPE":"U","MEAN_MOTION":15.38136062,"ECCENTRICITY":0.0003102,"INCLINATION":51.8773,"RA_OF_ASC_NODE":47.8837,"ARG_OF_PERICENTER":93.6565,"MEAN_ANOMALY":266.4776,"EPHEMERIS_TYPE":0,"NORAD_CAT_ID":68582,"ELEMENT_SET_NO":999,"REV_AT_EPOCH":1548,"BSTAR":0.00041396,"MEAN_MOTION_DOT":0.00015427,"MEAN_MOTION_DDOT":0},{"OBJECT_NAME":"KUIPER-00244","OBJECT_ID":"2026-072L","EPOCH":"2026-07-13T19:32:00.819168","CLASSIFICATION_TYPE":"U","MEAN_MOTION":14.79915706,"ECCENTRICITY":0.0001305,"INCLINATION":51.9008,"RA_OF_ASC_NODE":62.9173,"ARG_OF_PERICENTER":108.6523,"MEAN_ANOMALY":251.4581,"EPHEMERIS_TYPE":0,"NORAD_CAT_ID":68583,"ELEMENT_SET_NO":999,"REV_AT_EPOCH":1527,"BSTAR":0.00026132,"MEAN_MOTION_DOT":0.00001771,"MEAN_MOTION_DDOT":0},{"OBJECT_NAME":"KUIPER-00253","OBJECT_ID":"2026-072M","EPOCH":"2026-07-13T19:28:08.988960","CLASSIFICATION_TYPE":"U","MEAN_MOTION":14.79930731,"ECCENTRICITY":0.0001312,"INCLINATION":51.9073,"RA_OF_ASC_NODE":65.4312,"ARG_OF_PERICENTER":130.5625,"MEAN_ANOMALY":229.5452,"EPHEMERIS_TYPE":0,"NORAD_CAT_ID":68584,"ELEMENT_SET_NO":999,"REV_AT_EPOCH":1523,"BSTAR":0.00010632,"MEAN_MOTION_DOT":0.00000589,"MEAN_MOTION_DDOT":0},{"OBJECT_NAME":"KUIPER-00254","OBJECT_ID":"2026-072N","EPOCH":"2026-07-13T20:12:52.953984","CLASSIFICATION_TYPE":"U","MEAN_MOTION":14.79929449,"ECCENTRICITY":0.0002081,"INCLINATION":51.9039,"RA_OF_ASC_NODE":67.7931,"ARG_OF_PERICENTER":119.7182,"MEAN_ANOMALY":240.3988,"EPHEMERIS_TYPE":0,"NORAD_CAT_ID":68585,"ELEMENT_SET_NO":999,"REV_AT_EPOCH":1520,"BSTAR":0.00018771,"MEAN_MOTION_DOT":0.0000121,"MEAN_MOTION_DDOT":0},{"OBJECT_NAME":"KUIPER-00263","OBJECT_ID":"2026-072P","EPOCH":"2026-07-13T20:00:01.999008","CLASSIFICATION_TYPE":"U","MEAN_MOTION":14.84699757,"ECCENTRICITY":0.0000983,"INCLINATION":51.9001,"RA_OF_ASC_NODE":52.9976,"ARG_OF_PERICENTER":354.7051,"MEAN_ANOMALY":189.2964,"EPHEMERIS_TYPE":0,"NORAD_CAT_ID":68586,"ELEMENT_SET_NO":999,"REV_AT_EPOCH":537,"BSTAR":-0.0091964,"MEAN_MOTION_DOT":-0.0007796,"MEAN_MOTION_DDOT":0},{"OBJECT_NAME":"KUIPER-00269","OBJECT_ID":"2026-072Q","EPOCH":"2026-07-13T20:00:01.999008","CLASSIFICATION_TYPE":"U","MEAN_MOTION":14.79866517,"ECCENTRICITY":0.0000292,"INCLINATION":51.9,"RA_OF_ASC_NODE":55.3309,"ARG_OF_PERICENTER":55.0979,"MEAN_ANOMALY":185.253,"EPHEMERIS_TYPE":0,"NORAD_CAT_ID":68587,"ELEMENT_SET_NO":999,"REV_AT_EPOCH":591,"BSTAR":-0.0018048,"MEAN_MOTION_DOT":-0.00013929,"MEAN_MOTION_DDOT":0}]}
