KUIPER-00279            
1 67795U 26030AH  26194.70029955 -.00000131  00000+0  11862-4 0  9991
2 67795  51.9044 340.9202 0001045 159.0682 201.0323 14.79926821 24321
KUIPER-00131            
1 68573U 26072A   26194.83149279  .00001811  00000+0  26645-3 0  9997
2 68573  51.9006  77.8291 0000675 103.5118 256.5920 14.79932511 15066
KUIPER-00189            
1 68574U 26072B   26194.86256250 -.00000390  00000+0 -22112-4 0  9998
2 68574  51.8996  80.1786 0000906  91.7674 268.3392 14.79935401 15034
KUIPER-00192            
1 68575U 26072C   26194.83418706  .00001873  00000+0  27462-3 0  9999
2 68575  51.9013  75.3139 0000807 107.4764 252.6287 14.79931357 15102
KUIPER-00193            
1 68576U 26072D   26193.96320498  .00001178  00000+0  19763-3 0  9996
2 68576  51.9051  69.1401 0000787   8.4291 351.6683 14.76603137 15110
KUIPER-00194            
1 68577U 26072E   26194.87062787  .00001811  00000+0  26657-3 0  9996
2 68577  51.9030  72.6651 0000824 139.0080 221.0945 14.79917717 15142
KUIPER-00229            
1 68578U 26072F   26194.86524882  .00001755  00000+0  25914-3 0  9997
2 68578  51.9010  77.6763 0000906 112.2477 247.8582 14.79938468 15075
KUIPER-00230            
1 68579U 26072G   26194.82538412  .00021118  00000+0  55345-3 0  9994
2 68579  51.8762  47.7414 0002956 115.1761 244.9533 15.38632824 15487
KUIPER-00231            
1 68580U 26072H   26194.83335647 -.00047520  00000+0 -40964-2 0  9999
2 68580  51.8960  50.7177 0002069   0.2764 265.3730 14.96948473  5401
KUIPER-00234            
1 68581U 26072J   26194.83349588  .00003287  00000+0  49700-3 0  9997
2 68581  51.8997  72.7645 0004294 351.7449   8.3441 14.76581826 15130
KUIPER-00236            
1 68582U 26072K   26194.84655478  .00015427  00000+0  41396-3 0  9999
2 68582  51.8773  47.8837 0003102  93.6565 266.4776 15.38136062 15480
KUIPER-00244            
1 68583U 26072L   26194.81389837  .00001771  00000+0  26132-3 0  9998
2 68583  51.9008  62.9173 0001305 108.6523 251.4581 14.79915706 15277
KUIPER-00253            
1 68584U 26072M   26194.81121515  .00000589  00000+0  10632-3 0  9990
2 68584  51.9073  65.4312 0001312 130.5625 229.5452 14.79930731 15232
KUIPER-00254            
1 68585U 26072N   26194.84227956  .00001210  00000+0  18771-3 0  9994
2 68585  51.9039  67.7931 0002081 119.7182 240.3988 14.79929449 15204
KUIPER-00263            
1 68586U 26072P   26194.83335647 -.00077960  00000+0 -91964-2 0  9992
2 68586  51.9001  52.9976 0000983 354.7051 189.2964 14.84699757  5378
KUIPER-00269            
1 68587U 26072Q   26194.83335647 -.00013929  00000+0 -18048-2 0  9990
2 68587  51.9000  55.3309 0000292  55.0979 185.2530 14.79866517  5917
